[{"OBJECT_NAME":"JILIN-1 GAOFEN 03D50","OBJECT_ID":"2022-167J","EPOCH":"2026-03-09T22:35:59.947584","MEAN_MOTION":15.32279726,"ECCENTRICITY":0.00065764,"INCLINATION":97.6731,"RA_OF_ASC_NODE":232.9458,"ARG_OF_PERICENTER":101.1473,"MEAN_ANOMALY":259.0507,"EPHEMERIS_TYPE":0,"CLASSIFICATION_TYPE":"U","NORAD_CAT_ID":54690,"ELEMENT_SET_NO":999,"REV_AT_EPOCH":18014,"BSTAR":0.00049467973,"MEAN_MOTION_DOT":0.00015359,"MEAN_MOTION_DDOT":0},{"OBJECT_NAME":"STARLINK-31249","OBJECT_ID":"2024-017N","EPOCH":"2026-03-09T14:42:57.498336","MEAN_MOTION":15.30192085,"ECCENTRICITY":3.18e-5,"INCLINATION":53.1595,"RA_OF_ASC_NODE":204.733,"ARG_OF_PERICENTER":38.2043,"MEAN_ANOMALY":321.8981,"EPHEMERIS_TYPE":0,"CLASSIFICATION_TYPE":"U","NORAD_CAT_ID":58838,"ELEMENT_SET_NO":999,"REV_AT_EPOCH":12004,"BSTAR":-4.8633e-5,"MEAN_MOTION_DOT":-1.798e-5,"MEAN_MOTION_DDOT":0}]
